{"spaceTrack"{"CCSDS_OMM_VERS":"2.0","COMMENT":"GENERATED VIA SPACE-TRACK.ORG API","CREATION_DATE":"2021-01-26T13:16:10","ORIGINATOR":"18 SPCS","OBJECT_NAME":"STARLINK-1605","OBJECT_ID":"2020-057G","CENTER_NAME":"EARTH","REF_FRAME":"TEME","TIME_SYSTEM":"UTC","MEAN_ELEMENT_THEORY":"SGP4","EPOCH":"2021-01-26T08:49:33.821184","MEAN_MOTION":15.06396077,"ECCENTRICITY":0.0001808,"INCLINATION":53.0574,"RA_OF_ASC_NODE":23.81,"ARG_OF_PERICENTER":52.6741,"MEAN_ANOMALY":307.4412,"EPHEMERIS_TYPE":0,"CLASSIFICATION_TYPE":"U","NORAD_CAT_ID":46123,"ELEMENT_SET_NO":999,"REV_AT_EPOCH":2568,"BSTAR":-0.000048073,"MEAN_MOTION_DOT":-0.00000998,"MEAN_MOTION_DDOT":0,"SEMIMAJOR_AXIS":6925.361,"PERIOD":95.592,"APOAPSIS":548.478,"PERIAPSIS":545.973,"OBJECT_TYPE":"PAYLOAD","RCS_SIZE":"LARGE","COUNTRY_CODE":"US","LAUNCH_DATE":"2020-08-18","SITE":"AFETR","DECAY_DATE":null,"DECAYED":0,"FILE":2939731,"GP_ID":170381895,"TLE_LINE0":"0 STARLINK-1605","TLE_LINE1":"1 46123U 20057G   21026.36775256 -.00000998  00000-0 -48073-4 0  9996","TLE_LINE2":"2 46123  53.0574  23.8100 0001808  52.6741 307.4412 15.06396077 25684"},"version":"v1.0","launch":"5ed981d91f30554030d45c2a","longitude":33,"latitude":53.2074862346454,"height_km":552.780268856417,"velocity_kms":7.592316220202871,"id":"5f487be7d76203000692e572"}
{"spaceTrack"{"CCSDS_OMM_VERS":"2.0","COMMENT":"GENERATED VIA SPACE-TRACK.ORG API","CREATION_DATE":"2021-01-26T02:30:00","ORIGINATOR":"18 SPCS","OBJECT_NAME":"STARLINK-1604","OBJECT_ID":"2020-057F","CENTER_NAME":"EARTH","REF_FRAME":"TEME","TIME_SYSTEM":"UTC","MEAN_ELEMENT_THEORY":"SGP4","EPOCH":"2021-01-25T17:15:24.159168","MEAN_MOTION":15.06407833,"ECCENTRICITY":0.0001859,"INCLINATION":53.0711,"RA_OF_ASC_NODE":26.6385,"ARG_OF_PERICENTER":62.2327,"MEAN_ANOMALY":297.885,"EPHEMERIS_TYPE":0,"CLASSIFICATION_TYPE":"U","NORAD_CAT_ID":46122,"ELEMENT_SET_NO":999,"REV_AT_EPOCH":2618,"BSTAR":0.000041821,"MEAN_MOTION_DOT":0.00000341,"MEAN_MOTION_DDOT":0,"SEMIMAJOR_AXIS":6925.325,"PERIOD":95.592,"APOAPSIS":548.477,"PERIAPSIS":545.902,"OBJECT_TYPE":"PAYLOAD","RCS_SIZE":"LARGE","COUNTRY_CODE":"US","LAUNCH_DATE":"2020-08-18","SITE":"AFETR","DECAY_DATE":null,"DECAYED":0,"FILE":2939303,"GP_ID":170371795,"TLE_LINE0":"0 STARLINK-1604","TLE_LINE1":"1 46122U 20057F   21025.71902962  .00000341  00000-0  41821-4 0  9993","TLE_LINE2":"2 46122  53.0711  26.6385 0001859  62.2327 297.8850 15.06407833 26182"},"version":"v1.0","launch":"5ed981d91f30554030d45c2a","longitude":16,"latitude":7.74353074614373,"height_km":546.6592038696035,"velocity_kms":7.590924905559572,"id":"5f487be7d76203000692e575"}
{"spaceTrack"{"CCSDS_OMM_VERS":"2.0","COMMENT":"GENERATED VIA SPACE-TRACK.ORG API","CREATION_DATE":"2021-01-26T13:16:10","ORIGINATOR":"18 SPCS","OBJECT_NAME":"STARLINK-1594","OBJECT_ID":"2020-057Z","CENTER_NAME":"EARTH","REF_FRAME":"TEME","TIME_SYSTEM":"UTC","MEAN_ELEMENT_THEORY":"SGP4","EPOCH":"2021-01-26T06:05:01.239648","MEAN_MOTION":15.06400676,"ECCENTRICITY":0.0001802,"INCLINATION":53.0597,"RA_OF_ASC_NODE":24.3096,"ARG_OF_PERICENTER":66.2227,"MEAN_ANOMALY":293.895,"EPHEMERIS_TYPE":0,"CLASSIFICATION_TYPE":"U","NORAD_CAT_ID":46140,"ELEMENT_SET_NO":999,"REV_AT_EPOCH":2567,"BSTAR":0.000059776,"MEAN_MOTION_DOT":0.00000609,"MEAN_MOTION_DDOT":0,"SEMIMAJOR_AXIS":6925.346,"PERIOD":95.592,"APOAPSIS":548.459,"PERIAPSIS":545.964,"OBJECT_TYPE":"PAYLOAD","RCS_SIZE":"LARGE","COUNTRY_CODE":"US","LAUNCH_DATE":"2020-08-18","SITE":"AFETR","DECAY_DATE":null,"DECAYED":0,"FILE":2939724,"GP_ID":170381814,"TLE_LINE0":"0 STARLINK-1594","TLE_LINE1":"1 46140U 20057Z   21026.25348657  .00000609  00000-0  59776-4 0  9993","TLE_LINE2":"2 46140  53.0597  24.3096 0001802  66.2227 293.8950 15.06400676 25677"},"version":"v1.0","launch":"5ed981d91f30554030d45c2a","longitude":17,"latitude":-8.297536596150806,"height_km":549.2649531100851,"velocity_kms":7.588115890198709,"id":"5f487be7d76203000692e576"}
{"spaceTrack"{"CCSDS_OMM_VERS":"2.0","COMMENT":"GENERATED VIA SPACE-TRACK.ORG API","CREATION_DATE":"2021-01-26T06:16:09","ORIGINATOR":"18 SPCS","OBJECT_NAME":"STARLINK-1597","OBJECT_ID":"2020-057AB","CENTER_NAME":"EARTH","REF_FRAME":"TEME","TIME_SYSTEM":"UTC","MEAN_ELEMENT_THEORY":"SGP4","EPOCH":"2021-01-26T02:48:37.670688","MEAN_MOTION":15.06398905,"ECCENTRICITY":0.0001595,"INCLINATION":53.0539,"RA_OF_ASC_NODE":64.9644,"ARG_OF_PERICENTER":67.2127,"MEAN_ANOMALY":292.9031,"EPHEMERIS_TYPE":0,"CLASSIFICATION_TYPE":"U","NORAD_CAT_ID":46142,"ELEMENT_SET_NO":999,"REV_AT_EPOCH":2508,"BSTAR":-0.000018077,"MEAN_MOTION_DOT":-0.00000551,"MEAN_MOTION_DDOT":0,"SEMIMAJOR_AXIS":6925.352,"PERIOD":95.592,"APOAPSIS":548.322,"PERIAPSIS":546.112,"OBJECT_TYPE":"PAYLOAD","RCS_SIZE":"LARGE","COUNTRY_CODE":"US","LAUNCH_DATE":"2020-08-18","SITE":"AFETR","DECAY_DATE":null,"DECAYED":0,"FILE":2939324,"GP_ID":170373476,"TLE_LINE0":"0 STARLINK-1597","TLE_LINE1":"1 46142U 20057AB  21026.11710267 -.00000551  00000-0 -18077-4 0  9997","TLE_LINE2":"2 46142  53.0539  64.9644 0001595  67.2127 292.9031 15.06398905 25089"},"version":"v1.0","launch":"5ed981d91f30554030d45c2a","longitude":161,"latitude":7.736496493302995,"height_km":546.8551315568848,"velocity_kms":7.590727163571858,"id":"5f487be7d76203000692e577"}
{"spaceTrack"{"CCSDS_OMM_VERS":"2.0","COMMENT":"GENERATED VIA SPACE-TRACK.ORG API","CREATION_DATE":"2021-01-26T02:30:00","ORIGINATOR":"18 SPCS","OBJECT_NAME":"STARLINK-1611","OBJECT_ID":"2020-057AG","CENTER_NAME":"EARTH","REF_FRAME":"TEME","TIME_SYSTEM":"UTC","MEAN_ELEMENT_THEORY":"SGP4","EPOCH":"2021-01-25T20:15:52.239168","MEAN_MOTION":15.06390539,"ECCENTRICITY":0.0001477,"INCLINATION":53.058,"RA_OF_ASC_NODE":66.1643,"ARG_OF_PERICENTER":61.1187,"MEAN_ANOMALY":298.995,"EPHEMERIS_TYPE":0,"CLASSIFICATION_TYPE":"U","NORAD_CAT_ID":46147,"ELEMENT_SET_NO":999,"REV_AT_EPOCH":2564,"BSTAR":0.00018955,"MEAN_MOTION_DOT":0.00002542,"MEAN_MOTION_DDOT":0,"SEMIMAJOR_AXIS":6925.378,"PERIOD":95.593,"APOAPSIS":548.265,"PERIAPSIS":546.22,"OBJECT_TYPE":"PAYLOAD","RCS_SIZE":"LARGE","COUNTRY_CODE":"US","LAUNCH_DATE":"2020-08-18","SITE":"AFETR","DECAY_DATE":null,"DECAYED":0,"FILE":2939303,"GP_ID":170372329,"TLE_LINE0":"0 STARLINK-1611","TLE_LINE1":"1 46147U 20057AG  21025.84435462  .00002542  00000-0  18955-3 0  9996","TLE_LINE2":"2 46147  53.0580  66.1643 0001477  61.1187 298.9950 15.06390539 25644"},"version":"v1.0","launch":"5ed981d91f30554030d45c2a","longitude":166,"latitude":37.54322480519863,"height_km":549.3166494471061,"velocity_kms":7.592609862933649,"id":"5f487be7d76203000692e578"}
{"spaceTrack"{"CCSDS_OMM_VERS":"2.0","COMMENT":"GENERATED VIA SPACE-TRACK.ORG API","CREATION_DATE":"2021-01-26T06:16:09","ORIGINATOR":"18 SPCS","OBJECT_NAME":"STARLINK-1631","OBJECT_ID":"2020-057AL","CENTER_NAME":"EARTH","REF_FRAME":"TEME","TIME_SYSTEM":"UTC","MEAN_ELEMENT_THEORY":"SGP4","EPOCH":"2021-01-26T00:49:13.574496","MEAN_MOTION":15.06381065,"ECCENTRICITY":0.0000095,"INCLINATION":53.0179,"RA_OF_ASC_NODE":45.3227,"ARG_OF_PERICENTER":286.1606,"MEAN_ANOMALY":73.9372,"EPHEMERIS_TYPE":0,"CLASSIFICATION_TYPE":"U","NORAD_CAT_ID":46151,"ELEMENT_SET_NO":999,"REV_AT_EPOCH":2535,"BSTAR":0.000099189,"MEAN_MOTION_DOT":0.00001196,"MEAN_MOTION_DDOT":0,"SEMIMAJOR_AXIS":6925.407,"PERIOD":95.593,"APOAPSIS":547.337,"PERIAPSIS":547.206,"OBJECT_TYPE":"PAYLOAD","RCS_SIZE":"LARGE","COUNTRY_CODE":"US","LAUNCH_DATE":"2020-08-18","SITE":"AFETR","DECAY_DATE":null,"DECAYED":0,"FILE":2939333,"GP_ID":170373568,"TLE_LINE0":"0 STARLINK-1631","TLE_LINE1":"1 46151U 20057AL  21026.03418489  .00001196  00000-0  99189-4 0  9996","TLE_LINE2":"2 46151  53.0179  45.3227 0000095 286.1606  73.9372 15.06381065 25351"},"version":"v1.0","launch":"5ed981d91f30554030d45c2a","longitude":149,"latitude":52.10032423504217,"height_km":553.6389609236348,"velocity_kms":7.591153976047413,"id":"5f487be7d76203000692e57d"}
{"spaceTrack"{"CCSDS_OMM_VERS":"2.0","COMMENT":"GENERATED VIA SPACE-TRACK.ORG API","CREATION_DATE":"2021-01-26T02:30:00","ORIGINATOR":"18 SPCS","OBJECT_NAME":"STARLINK-1608","OBJECT_ID":"2020-057AF","CENTER_NAME":"EARTH","REF_FRAME":"TEME","TIME_SYSTEM":"UTC","MEAN_ELEMENT_THEORY":"SGP4","EPOCH":"2021-01-25T19:06:51.606432","MEAN_MOTION":15.06398261,"ECCENTRICITY":0.0001344,"INCLINATION":53.0601,"RA_OF_ASC_NODE":66.3814,"ARG_OF_PERICENTER":67.8054,"MEAN_ANOMALY":292.3077,"EPHEMERIS_TYPE":0,"CLASSIFICATION_TYPE":"U","NORAD_CAT_ID":46146,"ELEMENT_SET_NO":999,"REV_AT_EPOCH":2438,"BSTAR":-0.000052518,"MEAN_MOTION_DOT":-0.00001064,"MEAN_MOTION_DDOT":0,"SEMIMAJOR_AXIS":6925.354,"PERIOD":95.592,"APOAPSIS":548.15,"PERIAPSIS":546.288,"OBJECT_TYPE":"PAYLOAD","RCS_SIZE":"LARGE","COUNTRY_CODE":"US","LAUNCH_DATE":"2020-08-18","SITE":"AFETR","DECAY_DATE":null,"DECAYED":0,"FILE":2939303,"GP_ID":170371798,"TLE_LINE0":"0 STARLINK-1608","TLE_LINE1":"1 46146U 20057AF  21025.79643063 -.00001064  00000-0 -52518-4 0  9991","TLE_LINE2":"2 46146  53.0601  66.3814 0001344  67.8054 292.3077 15.06398261 24386"},"version":"v1.0","launch":"5ed981d91f30554030d45c2a","longitude":171,"latitude":-38.109920291969814,"height_km":560.0658525518929,"velocity_kms":7.580952242967242,"id":"5f487be7d76203000692e583"}
